[{"OBJECT_NAME":"ONEWEB-0451","OBJECT_ID":"2022-012X","EPOCH":"2026-03-09T21:13:27.253344","MEAN_MOTION":13.17649514,"ECCENTRICITY":0.00017525,"INCLINATION":87.9159,"RA_OF_ASC_NODE":25.5522,"ARG_OF_PERICENTER":77.7889,"MEAN_ANOMALY":282.3439,"EPHEMERIS_TYPE":0,"CLASSIFICATION_TYPE":"U","NORAD_CAT_ID":51643,"ELEMENT_SET_NO":999,"REV_AT_EPOCH":20058,"BSTAR":-2.120108e-5,"MEAN_MOTION_DOT":5.0e-8,"MEAN_MOTION_DDOT":0},{"OBJECT_NAME":"DELTA 1 DEB","OBJECT_ID":"1975-052LY","EPOCH":"2026-03-09T09:11:27.158208","MEAN_MOTION":13.31678023,"ECCENTRICITY":0.00702073,"INCLINATION":99.693,"RA_OF_ASC_NODE":255.1117,"ARG_OF_PERICENTER":268.4263,"MEAN_ANOMALY":211.2195,"EPHEMERIS_TYPE":0,"CLASSIFICATION_TYPE":"U","NORAD_CAT_ID":42639,"ELEMENT_SET_NO":999,"REV_AT_EPOCH":59752,"BSTAR":0.0001782332,"MEAN_MOTION_DOT":4.5e-7,"MEAN_MOTION_DDOT":0}]
